GLOBALSTAR M057         
1 25943U 99058A   24122.56680505 -.00000054  00000+0  35575-3 0  9997
2 25943  51.9985  76.3344 0001955 249.5093 110.5547 12.24785743116498
GLOBALSTAR M059         
1 25944U 99058B   24122.59016088 -.00000087  00000+0 -91118-5 0  9994
2 25944  52.0014 240.6568 0000830 165.8967 207.4224 11.99960570524630
GLOBALSTAR M056         
1 25945U 99058C   24122.60109230 -.00000005  00000+0  96429-3 0  9996
2 25945  51.9957 253.1573 0001536  97.0057  34.7527 12.04776004113017
GLOBALSTAR M031         
1 25946U 99058D   24122.42753160 -.00000017  00000+0  74885-3 0  9999
2 25946  51.9941 170.6019 0001405  72.1395 301.3331 12.16008105114451
GLOBALSTAR M039         
1 25961U 99062A   24122.58064351 -.00000066  00000+0  21077-3 0  9994
2 25961  51.9841  82.3480 0002644 146.8393 213.2640 12.62289357128237
GLOBALSTAR M034         
1 25962U 99062B   24122.43583008 -.00000041  00000+0  62866-3 0  9998
2 25962  51.9901   1.6838 0014012 346.8764 183.5863 11.79428026 89802
GLOBALSTAR M029         
1 25963U 99062C   24122.43601881 -.00000063  00000+0  28635-3 0  9999
2 25963  51.9766 129.4627 0002588  27.9830 120.8262 11.99877325119693
GLOBALSTAR M061         
1 25964U 99062D   24122.40304522 -.00000056  00000+0  39404-3 0  9997
2 25964  51.9773 180.3479 0006047 267.8855 104.5573 11.76761669 72701
